[Satellite]
VERSION=1.1
NAME=NILESAT 102
NICKNAME=NILESAT 102
TLE1=1 26470U 00046B   17186.24254434 -.00000064  00000-0  00000-0 0  9991
TLE2=2 26470   1.7181  83.6292 0003915  29.3942 250.7546  1.00274181 12417
